0 COSMOS 249 DEB
1 18549U 68091DE  13283.65532303 -.00000037  00000-0  00000+0 0  5788
2 18549 062.1902 049.2908 0689186 313.9988 040.6537 12.89457184 30085
0 COSMOS 249 DEB
1 18549U 68091DE  13285.74903948  .00000959  00000-0  13919-2 0  5774
2 18549 062.2363 044.1596 0688508 314.0089 040.5741 12.89478093 30353
0 COSMOS 249 DEB
1 18549U 68091DE  13285.78418731  .00001253  00000-0  17618-2 0  5788
2 18549 062.2288 044.0647 0692615 313.7785 204.0133 12.89477759 30358
0 COSMOS 249 DEB
1 18549U 68091DE  13286.79348949  .00001375  00000-0  19208-2 0  5796
2 18549 062.2286 041.5985 0692729 314.0170 209.3037 12.89480339 30484
0 COSMOS 249 DEB
1 18549U 68091DE  13289.32298926  .00001538  00000-0  21317-2 0  5804
2 18549 062.2302 035.4153 0693304 314.5556 071.6291 12.89489686 30818
0 COSMOS 249 DEB
1 18549U 68091DE  13293.27786703  .00001805  00000-0  24780-2 0  5813
2 18549 062.2285 025.7482 0693761 315.4324 070.8936 12.89501970 31320
0 COSMOS 249 DEB
1 18549U 68091DE  13294.28628141  .00001796  00000-0  24621-2 0  5820
2 18549 062.2279 023.2828 0694239 315.6451 072.1756 12.89505732 31453
